GOES 1 (SMS-C) [-]      
1 08366U 75100A   22312.22952627 -.00000218  00000+0  00000+0 0  9991
2 08366   7.9326 293.9349 0003051 280.0725 192.7052  1.00251595171861
GOES 2 [-]              
1 10061U 77048A   22312.30882757 -.00000268  00000+0  00000+0 0  9999
2 10061   9.5289 305.5856 0011095  21.1587 162.3886  0.99400825 33181
GOES 3 [-]              
1 10953U 78062A   22312.31104472 -.00000190  00000+0  00000+0 0  9992
2 10953   9.8683 310.1749 0001872 191.3099 190.1772  0.99365808115450
GOES 4 [-]              
1 11964U 80074A   22312.31105694 -.00000206  00000+0  00000+0 0  9996
2 11964  10.8379 314.0005 0031189  77.5767 300.4384  0.99234224114378
GOES 5 [-]              
1 12472U 81049A   22312.06877141 -.00000290  00000+0  00000+0 0  9992
2 12472  11.7137 325.4610 0001943 221.6925 177.9045  1.00281651109640
GOES 6 [-]              
1 14050U 83041A   22312.06821500 -.00000267  00000+0  00000+0 0  9992
2 14050  12.2912 330.7938 0003916 169.3727 216.5534  1.00264832202811
GOES 7 [-]              
1 17561U 87022A   22311.72077116  .00000092  00000+0  00000+0 0  9998
2 17561  14.1213 347.3790 0003789  72.5798 300.6403  0.99891719113804
GOES 8 [-]              
1 23051U 94022A   22311.92840021 -.00000119  00000+0  00000+0 0  9993
2 23051  13.2994  23.1743 0003575  47.7365 326.4046  0.98906507111106
GOES 9 [-]              
1 23581U 95025A   22312.32585597  .00000013  00000+0  00000+0 0  9996
2 23581  12.7943  23.5495 0006637 126.2260 240.1908  0.98799072 99751
GOES 10 [-]             
1 24786U 97019A   22311.76855240  .00000061  00000+0  00000+0 0  9994
2 24786  11.5827  29.7802 0028257 203.1976 158.6870  0.99120850 93015
GOES 11 [-]             
1 26352U 00022A   22312.29389913  .00000046  00000+0  00000+0 0  9994
2 26352   8.9877  58.1598 0002644 170.5293 174.6068  0.99040287 39427
GOES 12 [-]             
1 26871U 01031A   22312.37896708  .00000029  00000+0  00000+0 0  9996
2 26871   9.7756  47.2245 0003673 306.4098  42.0833  0.99137071 77701
EWS-G1 (GOES 13) [+]    
1 29155U 06018A   22312.17965951  .00000043  00000+0  00000+0 0  9995
2 29155   0.9391  94.3230 0006899 136.1943 302.8586  1.00271110 30172
GOES 14 [B]             
1 35491U 09033A   22312.40188427 -.00000089  00000+0  00000+0 0  9997
2 35491   0.2585 265.1182 0018446 315.2495 227.6613  1.00272672 48906
GOES 15 [B]             
1 36411U 10008A   22312.34979753  .00000060  00000+0  00000+0 0  9995
2 36411   0.2176 280.0147 0003761 273.0833 211.9817  1.00274591 46466
GOES 16 [+]             
1 41866U 16071A   22312.33104911 -.00000244  00000+0  00000+0 0  9991
2 41866   0.0461 272.2033 0000886 353.7479 185.5565  1.00271825 21900
GOES 17 [+]             
1 43226U 18022A   22307.95235639  .00000091  00000+0  00000+0 0  9994
2 43226   0.0256 280.8655 0000450 293.5132  34.3436  1.00271951 17175
GOES 18 [+]             
1 51850U 22021A   22312.32510123  .00000101  00000+0  00000+0 0  9993
2 51850   0.0061  57.8882 0002355 175.1615 154.5610  1.00271831  2576
